H1 CPF  1  HTS 2022  3 27 12  5861 larets           NONE
H2  0304206 5557    27944 2022 03 27  0  0  0 2022 04 01  0  0  0   180 1 1  0 0 0
H5  0.0560 
H9 
10 0 59665  47880.00000  0    6799824.750    1160669.058   -1489471.044
10 0 59665  48060.00000  0    6444151.812     814550.002   -2763457.448
10 0 59665  48240.00000  0    5844288.697     451283.370   -3936000.220
10 0 59665  48420.00000  0    5022275.664      90259.449   -4964304.897
10 0 59665  48600.00000  0    4008672.764    -249949.611   -5811033.570
10 0 59665  48780.00000  0    2841334.358    -552474.028   -6445617.941
10 0 59665  48960.00000  0    1563928.287    -802920.717   -6845297.069
10 0 59665  49140.00000  0     224270.005    -990007.264   -6995855.326
10 0 59665  49320.00000  0   -1127464.273   -1106034.330   -6892062.541
10 0 59665  49500.00000  0   -2440588.208   -1147182.612   -6537815.867
10 0 59665  49680.00000  0   -3665766.437   -1113628.896   -5945987.186
10 0 59665  49860.00000  0   -4756831.696   -1009479.612   -5137985.490
10 0 59665  50040.00000  0   -5672515.840    -842525.658   -4143038.526
10 0 59665  50220.00000  0   -6378030.509    -623825.999   -2997196.578
10 0 59665  50400.00000  0   -6846436.157    -367133.842   -1742077.120
10 0 59665  50580.00000  0   -7059732.779     -88188.415    -423381.329
10 0 59665  50760.00000  0   -7009611.439     196098.353     910772.945
10 0 59665  50940.00000  0   -6697814.594     468519.308    2211628.956
10 0 59665  51120.00000  0   -6136091.480     712466.376    3431605.192
10 0 59665  51300.00000  0   -5345740.518     912797.192    4526068.892
10 0 59665  51480.00000  0   -4356763.373    1056628.370    5454985.212
10 0 59665  51660.00000  0   -3206682.623    1134015.169    6184376.293
10 0 59665  51840.00000  0   -1939082.449    1138486.803    6687546.814
10 0 59665  52020.00000  0    -601929.535    1067415.098    6946038.375
10 0 59665  52200.00000  0     754253.029     922200.540    6950282.062
10 0 59665  52380.00000  0    2078289.838     708267.864    6699946.801
10 0 59665  52560.00000  0    3320281.359     434871.325    6203977.545
10 0 59665  52740.00000  0    4433498.547     114712.840    5480316.297
10 0 59665  52920.00000  0    5376178.580    -236616.649    4555300.917
10 0 59665  53100.00000  0    6113152.939    -601353.792    3462749.921
10 0 59665  53280.00000  0    6617241.059    -960407.048    2242748.554
10 0 59665  53460.00000  0    6870333.819   -1294290.905     940166.173
10 0 59665  53640.00000  0    6864105.270   -1584104.271    -397034.614
10 0 59665  53820.00000  0    6600313.370   -1812502.188   -1719630.779
10 0 59665  54000.00000  0    6090661.387   -1964603.717   -2979025.081
10 0 59665  54180.00000  0    5356233.928   -2028787.518   -4129090.639
10 0 59665  54360.00000  0    4426549.165   -1997333.278   -5127887.405
10 0 59665  54540.00000  0    3338287.484   -1866880.419   -5939182.944
10 0 59665  54720.00000  0    2133767.224   -1638686.501   -6533719.302
10 0 59665  54900.00000  0     859253.436   -1318676.784   -6890197.883
10 0 59665  55080.00000  0    -436834.282    -917289.541   -6995967.360
10 0 59665  55260.00000  0   -1705744.846    -449127.858   -6847408.887
10 0 59665  55440.00000  0   -2900194.527      67571.191   -6450025.403
10 0 59665  55620.00000  0   -3976088.938     611633.774   -5818236.864
10 0 59665  55800.00000  0   -4894124.175    1159791.060   -4974893.738
10 0 59665  55980.00000  0   -5621225.119    1687641.056   -3950508.874
10 0 59665  56160.00000  0   -6131767.951    2170701.605   -2782214.056
10 0 59665  56340.00000  0   -6408531.854    2585507.354   -1512460.707
10 0 59665  56520.00000  0   -6443335.326    2910703.401    -187501.227
10 0 59665  56700.00000  0   -6237316.676    3128081.966    1144301.245
10 0 59665  56880.00000  0   -5800831.908    3223506.360    2434265.503
10 0 59665  57060.00000  0   -5152971.632    3187673.182    3635205.425
10 0 59665  57240.00000  0   -4320724.212    3016670.986    4703184.949
10 0 59665  57420.00000  0   -3337827.592    2712306.224    5599138.057
10 0 59665  57600.00000  0   -2243373.577    2282186.396    6290291.864
10 0 59665  57780.00000  0   -1080225.664    1739555.858    6751347.199
10 0 59665  57960.00000  0     106676.581    1102889.937    6965375.627
10 0 59665  58140.00000  0    1272053.122     395265.840    6924419.574
10 0 59665  58320.00000  0    2372006.476    -356468.452    6629788.546
10 0 59665  58500.00000  0    3365678.134   -1122704.882    6092043.440
10 0 59665  58680.00000  0    4216787.937   -1872236.330    5330661.627
10 0 59665  58860.00000  0    4895000.281   -2573529.230    4373378.637
10 0 59665  59040.00000  0    5377063.316   -3196060.277    3255219.289
10 0 59665  59220.00000  0    5647672.630   -3711661.765    2017231.690
10 0 59665  59400.00000  0    5700004.194   -4095807.147     704962.254
10 0 59665  59580.00000  0    5535887.933   -4328771.210    -633266.231
10 0 59665  59760.00000  0    5165608.866   -4396598.508   -1948201.926
10 0 59665  59940.00000  0    4607342.131   -4291824.485   -3191549.525
10 0 59665  60120.00000  0    3886255.560   -4013912.032   -4317799.304
10 0 59665  60300.00000  0    3033335.807   -3569385.460   -5285916.098
10 0 59665  60480.00000  0    2084007.812   -2971663.196   -6060816.872
10 0 59665  60660.00000  0    1076627.230   -2240611.121   -6614587.216
10 0 59665  60840.00000  0      50914.951   -1401842.755   -6927418.285
10 0 59665  61020.00000  0    -953604.526    -485793.851   -6988239.882
10 0 59665  61200.00000  0   -1899099.575     473384.369   -6795050.446
10 0 59665  61380.00000  0   -2750823.190    1439079.611   -6354952.800
10 0 59665  61560.00000  0   -3478359.344    2373585.806   -5683900.708
10 0 59665  61740.00000  0   -4056695.782    3239546.964   -4806164.219
10 0 59665  61920.00000  0   -4467093.731    4001435.566   -3753509.980
10 0 59665  62100.00000  0   -4697713.605    4627008.121   -2564107.028
10 0 59665  62280.00000  0   -4743971.756    5088678.456   -1281187.837
10 0 59665  62460.00000  0   -4608611.080    5364745.253      48501.726
10 0 59665  62640.00000  0   -4301470.792    5440410.276    1376414.135
10 0 59665  62820.00000  0   -3838960.706    5308526.797    2654001.957
10 0 59665  63000.00000  0   -3243260.473    4970032.876    3834530.875
10 0 59665  63180.00000  0   -2541286.204    4434049.305    4874813.895
10 0 59665  63360.00000  0   -1763484.201    3717642.212    5736800.299
10 0 59665  63540.00000  0    -942509.707    2845259.675    6388959.572
10 0 59665  63720.00000  0    -111854.453    1847871.796    6807409.965
10 0 59665  63900.00000  0     695514.726     761856.677    6976765.664
10 0 59665  64080.00000  0    1448459.944    -372328.635    6890687.450
10 0 59665  64260.00000  0    2118872.688   -1511648.566    6552125.404
10 0 59665  64440.00000  0    2682731.915   -2612118.962    5973247.304
10 0 59665  64620.00000  0    3120986.445   -3630514.763    5175046.273
10 0 59665  64800.00000  0    3420227.067   -4526095.463    4186626.102
10 0 59665  64980.00000  0    3573121.995   -5262281.558    3044176.118
10 0 59665  65160.00000  0    3578592.066   -5808206.803    1789655.257
10 0 59665  65340.00000  0    3441711.549   -6140067.036     469228.585
10 0 59665  65520.00000  0    3173337.371   -6242190.376    -868480.564
10 0 59665  65700.00000  0    2789485.027   -6107773.712   -2174250.270
10 0 59665  65880.00000  0    2310477.766   -5739235.293   -3400143.200
10 0 59665  66060.00000  0    1759921.449   -5148170.904   -4501320.548
10 0 59665  66240.00000  0    1163561.701   -4354917.196   -5437699.081
10 0 59665  66420.00000  0     548095.422   -3387765.391   -6175383.422
10 0 59665  66600.00000  0     -60007.897   -2281876.191   -6687835.551
10 0 59665  66780.00000  0    -635623.683   -1077950.150   -6956753.637
10 0 59665  66960.00000  0   -1155983.146     179288.951   -6972651.989
10 0 59665  67140.00000  0   -1601546.574    1442743.286   -6735140.323
10 0 59665  67320.00000  0   -1956715.169    2664670.490   -6252908.101
10 0 59665  67500.00000  0   -2210362.705    3798449.207   -5543423.316
10 0 59665  67680.00000  0   -2356175.571    4800335.091   -4632346.327
10 0 59665  67860.00000  0   -2392790.452    5631150.426   -3552659.896
10 0 59665  68040.00000  0   -2323720.754    6257838.947   -2343527.854
10 0 59665  68220.00000  0   -2157072.073    6654822.024   -1048916.062
10 0 59665  68400.00000  0   -1905059.029    6805090.502     283990.160
10 0 59665  68580.00000  0   -1583342.571    6700975.911    1606513.680
10 0 59665  68760.00000  0   -1210214.535    6344544.806    2870301.167
10 0 59665  68940.00000  0    -805671.420    5747581.830    4029125.002
10 0 59665  69120.00000  0    -390431.850    4931183.320    5040594.360
10 0 59665  69300.00000  0      15057.417    3924973.201    5867715.839
10 0 59665  69480.00000  0     391578.350    2765985.626    6480230.270
10 0 59665  69660.00000  0     722012.580    1497271.675    6855696.641
10 0 59665  69840.00000  0     992093.706     166283.455    6980289.882
10 0 59665  70020.00000  0    1191011.799   -1176901.225    6849296.795
10 0 59665  70200.00000  0    1311848.318   -2481458.225    6467306.163
10 0 59665  70380.00000  0    1351825.943   -3697746.706    5848080.128
10 0 59665  70560.00000  0    1312362.250   -4779222.122    5014099.431
10 0 59665  70740.00000  0    1198927.493   -5684257.768    3995791.741
10 0 59665  70920.00000  0    1020711.402   -6377815.981    2830458.392
10 0 59665  71100.00000  0     790107.552   -6832886.134    1560912.702
10 0 59665  71280.00000  0     522036.145   -7031611.857     233883.418
10 0 59665  71460.00000  0     233139.357   -6966049.371   -1101761.032
10 0 59665  71640.00000  0     -59109.747   -6638495.042   -2396890.951
10 0 59665  71820.00000  0    -337328.681   -6061367.376   -3603989.547
10 0 59665  72000.00000  0    -585129.668   -5256666.246   -4678940.777
10 0 59665  72180.00000  0    -787959.921   -4255039.382   -5582651.865
99
